{
  "type": "FeatureCollection",
  "features": [
    {
      "type": "Feature",
      "properties": {
        "norad_id": 28890,
        "name": "BEIJING 1",
        "group": "dmc",
        "lat": 70.85623719664562,
        "lon": 86.44903005186269,
        "alt_km": 673.1732087480268,
        "timestamp": "2025-12-09T16:56:36.246894+00:00",
        "meta_object_name": "BEIJING 1",
        "meta_object_id": "2005-043A",
        "meta_epoch": "2025-12-09T13:19:48.248256",
        "meta_mean_motion": 14.63361973,
        "meta_eccentricity": 0.0015141,
        "meta_inclination": 98.2657,
        "meta_ra_of_asc_node": 111.0549,
        "meta_arg_of_pericenter": 150.8072,
        "meta_mean_anomaly": 209.3979,
        "meta_ephemeris_type": 0,
        "meta_classification_type": "U",
        "meta_norad_cat_id": 28890,
        "meta_element_set_no": 999,
        "meta_rev_at_epoch": 7291,
        "meta_bstar": 0.00016876,
        "meta_mean_motion_dot": 8.24e-06,
        "meta_mean_motion_ddot": 0,
        "tle_line1": "1 28890U 05043A   25343.55541954  .00000824  00000+0  16876-3 0  9998",
        "tle_line2": "2 28890  98.2657 111.0549 0015141 150.8072 209.3979 14.63361973 72913"
      },
      "geometry": {
        "type": "Point",
        "coordinates": [
          86.44903005186269,
          70.85623719664562
        ]
      }
    },
    {
      "type": "Feature",
      "properties": {
        "norad_id": 33320,
        "name": "HUANJING 1A (HJ-1A)",
        "group": "dmc",
        "lat": -61.07083909870629,
        "lon": 138.04861644075046,
        "alt_km": 639.3988632964674,
        "timestamp": "2025-12-09T16:56:36.246921+00:00",
        "meta_object_name": "HUANJING 1A (HJ-1A)",
        "meta_object_id": "2008-041A",
        "meta_epoch": "2025-12-09T12:37:06.322368",
        "meta_mean_motion": 14.83375808,
        "meta_eccentricity": 0.0020346,
        "meta_inclination": 97.654,
        "meta_ra_of_asc_node": 331.9582,
        "meta_arg_of_pericenter": 44.4893,
        "meta_mean_anomaly": 315.7951,
        "meta_ephemeris_type": 0,
        "meta_classification_type": "U",
        "meta_norad_cat_id": 33320,
        "meta_element_set_no": 999,
        "meta_rev_at_epoch": 93028,
        "meta_bstar": 0.0001528,
        "meta_mean_motion_dot": 1.206e-05,
        "meta_mean_motion_ddot": 0,
        "tle_line1": "1 33320U 08041A   25343.52576762  .00001206  00000+0  15280-3 0  9998",
        "tle_line2": "2 33320  97.6540 331.9582 0020346  44.4893 315.7951 14.83375808930282"
      },
      "geometry": {
        "type": "Point",
        "coordinates": [
          138.04861644075046,
          -61.07083909870629
        ]
      }
    },
    {
      "type": "Feature",
      "properties": {
        "norad_id": 33321,
        "name": "HUANJING 1B (HJ-1B)",
        "group": "dmc",
        "lat": 69.01650432909753,
        "lon": 176.321385828407,
        "alt_km": 589.3545435078977,
        "timestamp": "2025-12-09T16:56:36.246936+00:00",
        "meta_object_name": "HUANJING 1B (HJ-1B)",
        "meta_object_id": "2008-041B",
        "meta_epoch": "2025-12-09T13:12:53.068608",
        "meta_mean_motion": 14.82809317,
        "meta_eccentricity": 0.0038268,
        "meta_inclination": 97.6398,
        "meta_ra_of_asc_node": 335.6873,
        "meta_arg_of_pericenter": 85.7251,
        "meta_mean_anomaly": 274.8335,
        "meta_ephemeris_type": 0,
        "meta_classification_type": "U",
        "meta_norad_cat_id": 33321,
        "meta_element_set_no": 999,
        "meta_rev_at_epoch": 93030,
        "meta_bstar": 0.00028078,
        "meta_mean_motion_dot": 2.249e-05,
        "meta_mean_motion_ddot": 0,
        "tle_line1": "1 33321U 08041B   25343.55061422  .00002249  00000+0  28078-3 0  9991",
        "tle_line2": "2 33321  97.6398 335.6873 0038268  85.7251 274.8335 14.82809317930306"
      },
      "geometry": {
        "type": "Point",
        "coordinates": [
          176.321385828407,
          69.01650432909753
        ]
      }
    },
    {
      "type": "Feature",
      "properties": {
        "norad_id": 33446,
        "name": "YAOGAN-4",
        "group": "dmc",
        "lat": 22.245181103607553,
        "lon": -89.42835779563478,
        "alt_km": 614.2633669717961,
        "timestamp": "2025-12-09T16:56:36.246949+00:00",
        "meta_object_name": "YAOGAN-4",
        "meta_object_id": "2008-061A",
        "meta_epoch": "2025-12-09T10:21:49.775040",
        "meta_mean_motion": 14.82667366,
        "meta_eccentricity": 0.0013862,
        "meta_inclination": 97.9179,
        "meta_ra_of_asc_node": 273.5635,
        "meta_arg_of_pericenter": 334.6053,
        "meta_mean_anomaly": 25.4478,
        "meta_ephemeris_type": 0,
        "meta_classification_type": "U",
        "meta_norad_cat_id": 33446,
        "meta_element_set_no": 999,
        "meta_rev_at_epoch": 91754,
        "meta_bstar": 0.00036362,
        "meta_mean_motion_dot": 2.883e-05,
        "meta_mean_motion_ddot": 0,
        "tle_line1": "1 33446U 08061A   25343.43182610  .00002883  00000+0  36362-3 0  9990",
        "tle_line2": "2 33446  97.9179 273.5635 0013862 334.6053  25.4478 14.82667366917544"
      },
      "geometry": {
        "type": "Point",
        "coordinates": [
          -89.42835779563478,
          22.245181103607553
        ]
      }
    },
    {
      "type": "Feature",
      "properties": {
        "norad_id": 35681,
        "name": "DEIMOS-1",
        "group": "dmc",
        "lat": -55.89687328314031,
        "lon": -47.09812021297229,
        "alt_km": 654.0925288834551,
        "timestamp": "2025-12-09T16:56:36.246960+00:00",
        "meta_object_name": "DEIMOS-1",
        "meta_object_id": "2009-041A",
        "meta_epoch": "2025-12-09T12:37:03.758880",
        "meta_mean_motion": 14.74944275,
        "meta_eccentricity": 0.0002716,
        "meta_inclination": 97.7147,
        "meta_ra_of_asc_node": 144.2784,
        "meta_arg_of_pericenter": 84.5608,
        "meta_mean_anomaly": 275.5911,
        "meta_ephemeris_type": 0,
        "meta_classification_type": "U",
        "meta_norad_cat_id": 35681,
        "meta_element_set_no": 999,
        "meta_rev_at_epoch": 87892,
        "meta_bstar": 0.00014579,
        "meta_mean_motion_dot": 9.32e-06,
        "meta_mean_motion_ddot": 0,
        "tle_line1": "1 35681U 09041A   25343.52573795  .00000932  00000+0  14579-3 0  9999",
        "tle_line2": "2 35681  97.7147 144.2784 0002716  84.5608 275.5911 14.74944275878928"
      },
      "geometry": {
        "type": "Point",
        "coordinates": [
          -47.09812021297229,
          -55.89687328314031
        ]
      }
    },
    {
      "type": "Feature",
      "properties": {
        "norad_id": 35683,
        "name": "UK-DMC 2",
        "group": "dmc",
        "lat": -63.30290483206925,
        "lon": -77.24193397468126,
        "alt_km": 651.2410480463022,
        "timestamp": "2025-12-09T16:56:36.246971+00:00",
        "meta_object_name": "UK-DMC 2",
        "meta_object_id": "2009-041C",
        "meta_epoch": "2025-12-09T12:35:04.481088",
        "meta_mean_motion": 14.75609595,
        "meta_eccentricity": 0.0001384,
        "meta_inclination": 97.8563,
        "meta_ra_of_asc_node": 118.518,
        "meta_arg_of_pericenter": 97.2481,
        "meta_mean_anomaly": 262.8886,
        "meta_ephemeris_type": 0,
        "meta_classification_type": "U",
        "meta_norad_cat_id": 35683,
        "meta_element_set_no": 999,
        "meta_rev_at_epoch": 87859,
        "meta_bstar": 0.00019748,
        "meta_mean_motion_dot": 1.298e-05,
        "meta_mean_motion_ddot": 0,
        "tle_line1": "1 35683U 09041C   25343.52435742  .00001298  00000+0  19748-3 0  9999",
        "tle_line2": "2 35683  97.8563 118.5180 0001384  97.2481 262.8886 14.75609595878594"
      },
      "geometry": {
        "type": "Point",
        "coordinates": [
          -77.24193397468126,
          -63.30290483206925
        ]
      }
    },
    {
      "type": "Feature",
      "properties": {
        "norad_id": 40715,
        "name": "DMC3-FM1",
        "group": "dmc",
        "lat": -6.308319566439254,
        "lon": 30.155021751578374,
        "alt_km": 618.8915357636242,
        "timestamp": "2025-12-09T16:56:36.246983+00:00",
        "meta_object_name": "DMC3-FM1",
        "meta_object_id": "2015-032A",
        "meta_epoch": "2025-12-09T12:52:26.225760",
        "meta_mean_motion": 14.85433063,
        "meta_eccentricity": 0.0004846,
        "meta_inclination": 97.669,
        "meta_ra_of_asc_node": 210.8452,
        "meta_arg_of_pericenter": 333.9689,
        "meta_mean_anomaly": 26.1282,
        "meta_ephemeris_type": 0,
        "meta_classification_type": "U",
        "meta_norad_cat_id": 40715,
        "meta_element_set_no": 999,
        "meta_rev_at_epoch": 56175,
        "meta_bstar": 0.00019204,
        "meta_mean_motion_dot": 1.604e-05,
        "meta_mean_motion_ddot": 0,
        "tle_line1": "1 40715U 15032A   25343.53641465  .00001604  00000+0  19204-3 0  9998",
        "tle_line2": "2 40715  97.6690 210.8452 0004846 333.9689  26.1282 14.85433063561753"
      },
      "geometry": {
        "type": "Point",
        "coordinates": [
          30.155021751578374,
          -6.308319566439254
        ]
      }
    },
    {
      "type": "Feature",
      "properties": {
        "norad_id": 40716,
        "name": "DMC3-FM2",
        "group": "dmc",
        "lat": 64.92047484577898,
        "lon": -164.29609082224903,
        "alt_km": 605.7692361233076,
        "timestamp": "2025-12-09T16:56:36.246993+00:00",
        "meta_object_name": "DMC3-FM2",
        "meta_object_id": "2015-032B",
        "meta_epoch": "2025-12-09T13:24:50.146272",
        "meta_mean_motion": 14.85432848,
        "meta_eccentricity": 0.0005576,
        "meta_inclination": 97.6747,
        "meta_ra_of_asc_node": 212.3085,
        "meta_arg_of_pericenter": 338.5606,
        "meta_mean_anomaly": 21.5375,
        "meta_ephemeris_type": 0,
        "meta_classification_type": "U",
        "meta_norad_cat_id": 40716,
        "meta_element_set_no": 999,
        "meta_rev_at_epoch": 56175,
        "meta_bstar": 0.00010511,
        "meta_mean_motion_dot": 8.54e-06,
        "meta_mean_motion_ddot": 0,
        "tle_line1": "1 40716U 15032B   25343.55891373  .00000854  00000+0  10511-3 0  9994",
        "tle_line2": "2 40716  97.6747 212.3085 0005576 338.5606  21.5375 14.85432848561759"
      },
      "geometry": {
        "type": "Point",
        "coordinates": [
          -164.29609082224903,
          64.92047484577898
        ]
      }
    },
    {
      "type": "Feature",
      "properties": {
        "norad_id": 40717,
        "name": "DMC3-FM3",
        "group": "dmc",
        "lat": -48.93064085482406,
        "lon": -137.01039781103256,
        "alt_km": 616.1238763625506,
        "timestamp": "2025-12-09T16:56:36.247004+00:00",
        "meta_object_name": "DMC3-FM3",
        "meta_object_id": "2015-032C",
        "meta_epoch": "2025-12-09T13:55:56.604000",
        "meta_mean_motion": 14.85421371,
        "meta_eccentricity": 0.0004942,
        "meta_inclination": 97.6801,
        "meta_ra_of_asc_node": 213.9602,
        "meta_arg_of_pericenter": 339.7301,
        "meta_mean_anomaly": 20.3718,
        "meta_ephemeris_type": 0,
        "meta_classification_type": "U",
        "meta_norad_cat_id": 40717,
        "meta_element_set_no": 999,
        "meta_rev_at_epoch": 56176,
        "meta_bstar": 7.151e-05,
        "meta_mean_motion_dot": 5.65e-06,
        "meta_mean_motion_ddot": 0,
        "tle_line1": "1 40717U 15032C   25343.58051625  .00000565  00000+0  71510-4 0  9992",
        "tle_line2": "2 40717  97.6801 213.9602 0004942 339.7301  20.3718 14.85421371561762"
      },
      "geometry": {
        "type": "Point",
        "coordinates": [
          -137.01039781103256,
          -48.93064085482406
        ]
      }
    }
  ]
}